EUTELSAT 139 WEST A     
1 28187U 04008A   26073.35115058 -.00000037  00000+0  00000+0 0  9993
2 28187   5.5866  73.1376 0002291  26.9736 180.9666  1.00831526 80406
EUTELSAT 174A           
1 28924U 05052A   26073.60294927  .00000010  00000+0  00000+0 0  9993
2 28924   3.9776  77.6923 0006271 278.3508 207.2395  1.00270306 51386
EUTELSAT 33F            
1 29270U 06032A   26073.57504881  .00000155  00000+0  00000+0 0  9996
2 29270   1.4156  83.3384 0003473 277.2865  51.6703  1.00274395 46353
EUTELSAT HOTBIRD 13C    
1 33459U 08065A   26073.48716843 -.00000282  00000+0  00000+0 0  9993
2 33459   2.7055  80.3169 0003866 286.8884 289.9789  1.00270791 46390
EUTELSAT 36B            
1 36101U 09065A   26073.57851550  .00000112  00000+0  00000+0 0  9997
2 36101   0.2510  78.1722 0005796 278.4060  74.3690  1.00270257 59751
EUTELSAT KA-SAT 9A      
1 37258U 10069A   26072.78582148  .00000061  00000+0  00000+0 0  9996
2 37258   0.0572 357.3624 0002536 148.4127 317.5124  1.00270252 43058
EUTELSAT 7 WEST A       
1 37816U 11051A   26073.35314391 -.00000061  00000+0  00000+0 0  9996
2 37816   0.0639 345.1232 0000848 198.6470 108.0104  1.00271322 52920
EUTELSAT 16A            
1 37836U 11057A   26073.57166880  .00000103  00000+0  00000+0 0  9992
2 37836   0.0545   2.4132 0005569 358.4552  33.1034  1.00270008  6381
EUTELSAT 21B            
1 38992U 12062B   26073.57279548  .00000129  00000+0  00000+0 0  9997
2 38992   0.0688 351.9925 0002932 354.9166  53.0680  1.00269747 48874
EUTELSAT 70B            
1 39020U 12069A   26073.58250218 -.00000044  00000+0  00000+0 0  9998
2 39020   0.0639   1.3830 0001963 338.0858 112.8983  1.00271689 48562
EUTELSAT 117 WEST A     
1 39122U 13012A   26073.59697392 -.00000014  00000+0  00000+0 0  9996
2 39122   0.0341 293.8934 0002893  69.7625 266.6514  1.00272690 47482
EUTELSAT 7B             
1 39163U 13022A   26073.56976213  .00000047  00000+0  00000+0 0  9996
2 39163   0.0669 351.7950 0006269   7.8714  24.6166  1.00271304 46996
EXPRESS-AT1             
1 39612U 14010A   26073.57964216  .00000077  00000+0  00000+0 0  9997
2 39612   0.0202 138.2478 0000350 301.6620 356.9946  1.00275440 43862
EXPRESS-AT2             
1 39613U 14010B   26070.51237429 -.00000280  00000+0  00000+0 0  9995
2 39613   0.0166 193.7113 0001308  80.7943 218.9521  1.00271550 43528
EUTELSAT 3B             
1 39773U 14030A   26073.56898212  .00000019  00000+0  00000+0 0  9994
2 39773   0.0631 356.1447 0000289 308.0205  75.9305  1.00272546 43113
EUTELSAT 115 WEST B     
1 40425U 15010B   26073.35392030 -.00000026  00000+0  00000+0 0  9992
2 40425   0.0416   6.8715 0000202 283.9584 253.6446  1.00272175 40445
EUTELSAT 8 WEST B       
1 40875U 15039B   26073.35297058 -.00000066  00000+0  00000+0 0  9990
2 40875   0.0671 352.1102 0003823   0.7431 298.1723  1.00271645 38701
