[{"OBJECT_NAME":"EUTELSAT 139 WEST A","OBJECT_ID":"2004-008A","EPOCH":"2026-03-14T08:25:39.410112","MEAN_MOTION":1.00831526,"ECCENTRICITY":0.00022912,"INCLINATION":5.5866,"RA_OF_ASC_NODE":73.1376,"ARG_OF_PERICENTER":26.9736,"MEAN_ANOMALY":180.9666,"EPHEMERIS_TYPE":0,"CLASSIFICATION_TYPE":"U","NORAD_CAT_ID":28187,"ELEMENT_SET_NO":999,"REV_AT_EPOCH":8040,"BSTAR":0,"MEAN_MOTION_DOT":-3.7e-7,"MEAN_MOTION_DDOT":0},{"OBJECT_NAME":"EUTELSAT 174A","OBJECT_ID":"2005-052A","EPOCH":"2026-03-14T14:28:14.816928","MEAN_MOTION":1.00270306,"ECCENTRICITY":0.00062711,"INCLINATION":3.9776,"RA_OF_ASC_NODE":77.6923,"ARG_OF_PERICENTER":278.3508,"MEAN_ANOMALY":207.2395,"EPHEMERIS_TYPE":0,"CLASSIFICATION_TYPE":"U","NORAD_CAT_ID":28924,"ELEMENT_SET_NO":999,"REV_AT_EPOCH":5138,"BSTAR":0,"MEAN_MOTION_DOT":1.0e-7,"MEAN_MOTION_DDOT":0},{"OBJECT_NAME":"EUTELSAT 33F","OBJECT_ID":"2006-032A","EPOCH":"2026-03-14T13:48:04.217184","MEAN_MOTION":1.00274395,"ECCENTRICITY":0.00034732,"INCLINATION":1.4156,"RA_OF_ASC_NODE":83.3384,"ARG_OF_PERICENTER":277.2865,"MEAN_ANOMALY":51.6703,"EPHEMERIS_TYPE":0,"CLASSIFICATION_TYPE":"U","NORAD_CAT_ID":29270,"ELEMENT_SET_NO":999,"REV_AT_EPOCH":4635,"BSTAR":0,"MEAN_MOTION_DOT":1.55e-6,"MEAN_MOTION_DDOT":0},{"OBJECT_NAME":"EUTELSAT HOTBIRD 13C","OBJECT_ID":"2008-065A","EPOCH":"2026-03-14T11:41:31.352352","MEAN_MOTION":1.00270791,"ECCENTRICITY":0.00038666,"INCLINATION":2.7055,"RA_OF_ASC_NODE":80.3169,"ARG_OF_PERICENTER":286.8884,"MEAN_ANOMALY":289.9789,"EPHEMERIS_TYPE":0,"CLASSIFICATION_TYPE":"U","NORAD_CAT_ID":33459,"ELEMENT_SET_NO":999,"REV_AT_EPOCH":4639,"BSTAR":0,"MEAN_MOTION_DOT":-2.82e-6,"MEAN_MOTION_DDOT":0},{"OBJECT_NAME":"EUTELSAT 36B","OBJECT_ID":"2009-065A","EPOCH":"2026-03-14T13:53:03.739200","MEAN_MOTION":1.00270257,"ECCENTRICITY":0.00057967,"INCLINATION":0.251,"RA_OF_ASC_NODE":78.1722,"ARG_OF_PERICENTER":278.406,"MEAN_ANOMALY":74.369,"EPHEMERIS_TYPE":0,"CLASSIFICATION_TYPE":"U","NORAD_CAT_ID":36101,"ELEMENT_SET_NO":999,"REV_AT_EPOCH":5975,"BSTAR":0,"MEAN_MOTION_DOT":1.12e-6,"MEAN_MOTION_DDOT":0},{"OBJECT_NAME":"EUTELSAT KA-SAT 9A","OBJECT_ID":"2010-069A","EPOCH":"2026-03-13T18:51:34.975872","MEAN_MOTION":1.00270252,"ECCENTRICITY":0.00025362,"INCLINATION":0.0572,"RA_OF_ASC_NODE":357.3624,"ARG_OF_PERICENTER":148.4127,"MEAN_ANOMALY":317.5124,"EPHEMERIS_TYPE":0,"CLASSIFICATION_TYPE":"U","NORAD_CAT_ID":37258,"ELEMENT_SET_NO":999,"REV_AT_EPOCH":4305,"BSTAR":0,"MEAN_MOTION_DOT":6.1e-7,"MEAN_MOTION_DDOT":0},{"OBJECT_NAME":"EUTELSAT 7 WEST A","OBJECT_ID":"2011-051A","EPOCH":"2026-03-14T08:28:31.633824","MEAN_MOTION":1.00271322,"ECCENTRICITY":8.487e-5,"INCLINATION":0.0639,"RA_OF_ASC_NODE":345.1232,"ARG_OF_PERICENTER":198.647,"MEAN_ANOMALY":108.0104,"EPHEMERIS_TYPE":0,"CLASSIFICATION_TYPE":"U","NORAD_CAT_ID":37816,"ELEMENT_SET_NO":999,"REV_AT_EPOCH":5292,"BSTAR":0,"MEAN_MOTION_DOT":-6.1e-7,"MEAN_MOTION_DDOT":0},{"OBJECT_NAME":"EUTELSAT 16A","OBJECT_ID":"2011-057A","EPOCH":"2026-03-14T13:43:12.184320","MEAN_MOTION":1.00270008,"ECCENTRICITY":0.00055694,"INCLINATION":0.0545,"RA_OF_ASC_NODE":2.4132,"ARG_OF_PERICENTER":358.4552,"MEAN_ANOMALY":33.1034,"EPHEMERIS_TYPE":0,"CLASSIFICATION_TYPE":"U","NORAD_CAT_ID":37836,"ELEMENT_SET_NO":999,"REV_AT_EPOCH":638,"BSTAR":0,"MEAN_MOTION_DOT":1.03e-6,"MEAN_MOTION_DDOT":0},{"OBJECT_NAME":"EUTELSAT 21B","OBJECT_ID":"2012-062B","EPOCH":"2026-03-14T13:44:49.529472","MEAN_MOTION":1.00269747,"ECCENTRICITY":0.00029329,"INCLINATION":0.0688,"RA_OF_ASC_NODE":351.9925,"ARG_OF_PERICENTER":354.9166,"MEAN_ANOMALY":53.068,"EPHEMERIS_TYPE":0,"CLASSIFICATION_TYPE":"U","NORAD_CAT_ID":38992,"ELEMENT_SET_NO":999,"REV_AT_EPOCH":4887,"BSTAR":0,"MEAN_MOTION_DOT":1.29e-6,"MEAN_MOTION_DDOT":0},{"OBJECT_NAME":"EUTELSAT 70B","OBJECT_ID":"2012-069A","EPOCH":"2026-03-14T13:58:48.188352","MEAN_MOTION":1.00271689,"ECCENTRICITY":0.00019634,"INCLINATION":0.0639,"RA_OF_ASC_NODE":1.383,"ARG_OF_PERICENTER":338.0858,"MEAN_ANOMALY":112.8983,"EPHEMERIS_TYPE":0,"CLASSIFICATION_TYPE":"U","NORAD_CAT_ID":39020,"ELEMENT_SET_NO":999,"REV_AT_EPOCH":4856,"BSTAR":0,"MEAN_MOTION_DOT":-4.4e-7,"MEAN_MOTION_DDOT":0},{"OBJECT_NAME":"EUTELSAT 117 WEST A","OBJECT_ID":"2013-012A","EPOCH":"2026-03-14T14:19:38.546688","MEAN_MOTION":1.0027269,"ECCENTRICITY":0.00028938,"INCLINATION":0.0341,"RA_OF_ASC_NODE":293.8934,"ARG_OF_PERICENTER":69.7625,"MEAN_ANOMALY":266.6514,"EPHEMERIS_TYPE":0,"CLASSIFICATION_TYPE":"U","NORAD_CAT_ID":39122,"ELEMENT_SET_NO":999,"REV_AT_EPOCH":4748,"BSTAR":0,"MEAN_MOTION_DOT":-1.4e-7,"MEAN_MOTION_DDOT":0},{"OBJECT_NAME":"EUTELSAT 7B","OBJECT_ID":"2013-022A","EPOCH":"2026-03-14T13:40:27.448032","MEAN_MOTION":1.00271304,"ECCENTRICITY":0.00062694,"INCLINATION":0.0669,"RA_OF_ASC_NODE":351.795,"ARG_OF_PERICENTER":7.8714,"MEAN_ANOMALY":24.6166,"EPHEMERIS_TYPE":0,"CLASSIFICATION_TYPE":"U","NORAD_CAT_ID":39163,"ELEMENT_SET_NO":999,"REV_AT_EPOCH":4699,"BSTAR":0,"MEAN_MOTION_DOT":4.7e-7,"MEAN_MOTION_DDOT":0},{"OBJECT_NAME":"EXPRESS-AT1","OBJECT_ID":"2014-010A","EPOCH":"2026-03-14T13:54:41.082624","MEAN_MOTION":1.0027544,"ECCENTRICITY":3.504e-5,"INCLINATION":0.0202,"RA_OF_ASC_NODE":138.2478,"ARG_OF_PERICENTER":301.662,"MEAN_ANOMALY":356.9946,"EPHEMERIS_TYPE":0,"CLASSIFICATION_TYPE":"U","NORAD_CAT_ID":39612,"ELEMENT_SET_NO":999,"REV_AT_EPOCH":4386,"BSTAR":0,"MEAN_MOTION_DOT":7.7e-7,"MEAN_MOTION_DDOT":0},{"OBJECT_NAME":"EXPRESS-AT2","OBJECT_ID":"2014-010B","EPOCH":"2026-03-11T12:17:49.138656","MEAN_MOTION":1.0027155,"ECCENTRICITY":0.00013084,"INCLINATION":0.0166,"RA_OF_ASC_NODE":193.7113,"ARG_OF_PERICENTER":80.7943,"MEAN_ANOMALY":218.9521,"EPHEMERIS_TYPE":0,"CLASSIFICATION_TYPE":"U","NORAD_CAT_ID":39613,"ELEMENT_SET_NO":999,"REV_AT_EPOCH":4352,"BSTAR":0,"MEAN_MOTION_DOT":-2.8e-6,"MEAN_MOTION_DDOT":0},{"OBJECT_NAME":"EUTELSAT 3B","OBJECT_ID":"2014-030A","EPOCH":"2026-03-14T13:39:20.055168","MEAN_MOTION":1.00272546,"ECCENTRICITY":2.891e-5,"INCLINATION":0.0631,"RA_OF_ASC_NODE":356.1447,"ARG_OF_PERICENTER":308.0205,"MEAN_ANOMALY":75.9305,"EPHEMERIS_TYPE":0,"CLASSIFICATION_TYPE":"U","NORAD_CAT_ID":39773,"ELEMENT_SET_NO":999,"REV_AT_EPOCH":4311,"BSTAR":0,"MEAN_MOTION_DOT":1.9e-7,"MEAN_MOTION_DDOT":0},{"OBJECT_NAME":"EUTELSAT 115 WEST B","OBJECT_ID":"2015-010B","EPOCH":"2026-03-14T08:29:38.713920","MEAN_MOTION":1.00272175,"ECCENTRICITY":2.026e-5,"INCLINATION":0.0416,"RA_OF_ASC_NODE":6.8715,"ARG_OF_PERICENTER":283.9584,"MEAN_ANOMALY":253.6446,"EPHEMERIS_TYPE":0,"CLASSIFICATION_TYPE":"U","NORAD_CAT_ID":40425,"ELEMENT_SET_NO":999,"REV_AT_EPOCH":4044,"BSTAR":0,"MEAN_MOTION_DOT":-2.6e-7,"MEAN_MOTION_DDOT":0},{"OBJECT_NAME":"EUTELSAT 8 WEST B","OBJECT_ID":"2015-039B","EPOCH":"2026-03-14T08:28:16.658112","MEAN_MOTION":1.00271645,"ECCENTRICITY":0.00038236,"INCLINATION":0.0671,"RA_OF_ASC_NODE":352.1102,"ARG_OF_PERICENTER":0.7431,"MEAN_ANOMALY":298.1723,"EPHEMERIS_TYPE":0,"CLASSIFICATION_TYPE":"U","NORAD_CAT_ID":40875,"ELEMENT_SET_NO":999,"REV_AT_EPOCH":3870,"BSTAR":0,"MEAN_MOTION_DOT":-6.6e-7,"MEAN_MOTION_DDOT":0}]
